[{"OBJECT_NAME":"STARLINK-32313","OBJECT_ID":"2024-183U","EPOCH":"2026-03-09T12:38:24.595584","MEAN_MOTION":15.30190362,"ECCENTRICITY":0.00012701,"INCLINATION":53.1606,"RA_OF_ASC_NODE":143.4622,"ARG_OF_PERICENTER":105.6514,"MEAN_ANOMALY":254.4627,"EPHEMERIS_TYPE":0,"CLASSIFICATION_TYPE":"U","NORAD_CAT_ID":61527,"ELEMENT_SET_NO":999,"REV_AT_EPOCH":7962,"BSTAR":5.216591e-5,"MEAN_MOTION_DOT":1.186e-5,"MEAN_MOTION_DDOT":0},{"OBJECT_NAME":"CZ-4C R\/B","OBJECT_ID":"2021-079B","EPOCH":"2026-03-09T14:04:29.438112","MEAN_MOTION":15.08928015,"ECCENTRICITY":0.0108377,"INCLINATION":98.3883,"RA_OF_ASC_NODE":282.6111,"ARG_OF_PERICENTER":26.1585,"MEAN_ANOMALY":334.506,"EPHEMERIS_TYPE":0,"CLASSIFICATION_TYPE":"U","NORAD_CAT_ID":49123,"ELEMENT_SET_NO":999,"REV_AT_EPOCH":24640,"BSTAR":0.00023549,"MEAN_MOTION_DOT":4.178e-5,"MEAN_MOTION_DDOT":0}]
